ONEWEB-0558             
1 56059U 23043P   25042.85421887  .00000047  00000+0  83068-4 0  9992
2 56059  87.9350 341.7046 0002301  85.8188 274.3209 13.21825214 93466
ONEWEB-0559             
1 56060U 23043Q   25042.84318318  .00000076  00000+0  15230-3 0  9994
2 56060  87.9349 341.7011 0001945  95.1213 265.0143 13.21826149 93477
ONEWEB-0566             
1 56061U 23043R   25042.83687852 -.00000053  00000+0 -15944-3 0  9995
2 56061  87.9350 341.7018 0002294  92.0394 268.1002 13.21822176 93453
ONEWEB-0568             
1 56062U 23043S   25042.83053387 -.00000019  00000+0 -82650-4 0  9997
2 56062  87.9128 326.4845 0001690  68.2553 291.8758 13.16596532 94456
ONEWEB-0574             
1 56063U 23043T   25042.83057053  .00000063  00000+0  12042-3 0  9996
2 56063  87.9345 341.6935 0001912  75.2567 284.8778 13.21826528 93491
ONEWEB-0575             
1 56064U 23043U   25042.82419917 -.00000420  00000+0 -11312-2 0  9994
2 56064  87.9128 326.4976 0001248  70.3947 289.7319 13.16593333 94447
ONEWEB-0576             
1 56065U 23043V   25042.80520957 -.00000049  00000+0 -16146-3 0  9998
2 56065  87.9130 326.4933 0001625  70.6328 289.4979 13.16592930 94439
ONEWEB-0577             
1 56066U 23043W   25042.81153396 -.00000293  00000+0 -79906-3 0  9993
2 56066  87.9127 326.4923 0001040  71.0872 289.0371 13.16592585 94466
